COSMOS 2433 (720)       
1 32275U 07052A   23314.13649955 -.00000038  00000+0  00000+0 0  9998
2 32275  66.0040 347.7134 0005439 246.5300 113.4827  2.13104187124816
COSMOS 2432 (719)       
1 32276U 07052B   23314.81027699 -.00000036  00000+0  00000+0 0  9997
2 32276  66.0183 347.8009 0010632 311.5301 152.2357  2.13103358124854
COSMOS 2434 (721)       
1 32393U 07065A   23316.31965282  .00000030  00000+0  00000+0 0  9990
2 32393  64.3292 223.9645 0002940  70.0346  56.2314  2.13103118123573
COSMOS 2436 (723)       
1 32395U 07065C   23315.94536905  .00000026  00000+0  00000+0 0  9991
2 32395  64.3380 224.0396 0016651   1.9728 332.5831  2.13102753123522
COSMOS 2456 (730)       
1 36111U 09070A   23316.20177359  .00000052  00000+0  00000+0 0  9992
2 36111  64.5208 103.4413 0001323 316.6503 237.3386  2.13099061108224
COSMOS 2457 (733)       
1 36112U 09070B   23315.71919104  .00000054  00000+0  00000+0 0  9992
2 36112  64.5045 103.3215 0006509 151.5483 163.5498  2.13101248108211
COSMOS 2460 (732)       
1 36402U 10007C   23316.31601959 -.00000032  00000+0  00000+0 0  9996
2 36402  65.8646 346.3445 0002558 255.4578 146.7120  2.13106315106535
COSMOS 2476 (744)       
1 37867U 11064A   23316.63204017  .00000055  00000+0  00000+0 0  9999
2 37867  64.7992 104.9799 0021889 230.3778 203.6017  2.13101672 93573
COSMOS 2477 (745)       
1 37868U 11064B   23314.21336205  .00000065  00000+0  00000+0 0  9998
2 37868  64.8054 105.1323 0019011 230.3263 325.9814  2.13101567 93513
COSMOS 2475 (743)       
1 37869U 11064C   23316.11995295  .00000057  00000+0  00000+0 0  9991
2 37869  64.8134 105.0804 0023020 248.4442 289.0808  2.13101778 93562
COSMOS 2485 (747)       
1 39155U 13019A   23316.47748525  .00000057  00000+0  00000+0 0  9994
2 39155  64.9590 105.5236 0022400 226.4267 133.3802  2.13101766 82082
COSMOS 2492 (754)       
1 39620U 14012A   23314.55602411 -.00000035  00000+0  00000+0 0  9992
2 39620  65.7483 346.0123 0013779 310.8142  49.1356  2.13103232 75007
COSMOS 2500 (755)       
1 40001U 14032A   23316.14617804 -.00000032  00000+0  00000+0 0  9995
2 40001  65.6859 345.7810 0008514 216.9558 143.0538  2.13106047 73253
COSMOS 2501 (702K)      
1 40315U 14075A   23315.45841920  .00000021  00000+0  00000+0 0  9998
2 40315  63.6322 223.2879 0018699 207.5696 152.3781  2.13101268 69633
COSMOS 2514 (751)       
1 41330U 16008A   23316.37843026 -.00000032  00000+0  00000+0 0  9998
2 41330  65.4825 345.3371 0012485 219.8202 140.1554  2.13102641 60425
COSMOS 2522 (752)       
1 42939U 17055A   23316.21992456  .00000029  00000+0  00000+0 0  9997
2 42939  64.0929 224.2269 0007159 240.3350 119.6432  2.13102032 47770
COSMOS 2527 (756)       
1 43508U 18053A   23315.24003559  .00000062  00000+0  00000+0 0  9995
2 43508  65.1193 105.6719 0008017 214.3509 145.5956  2.13102407 42052
COSMOS 2529 (757)       
1 43687U 18086A   23316.27795055  .00000029  00000+0  00000+0 0  9995
2 43687  64.3082 224.6789 0008821 265.4516  94.4966  2.13102066 39088
COSMOS 2534 (758)       
1 44299U 19030A   23316.37723433  .00000030  00000+0  00000+0 0  9999
2 44299  64.3808 224.6086 0011330 287.7936 282.5568  2.13101948 34728
COSMOS 2544 (759)       
1 44850U 19088A   23316.59160968  .00000056  00000+0  00000+0 0  9995
2 44850  65.1061 105.4681 0011683 247.5176 112.3509  2.13102149 30522
COSMOS 2545 (760)       
1 45358U 20018A   23315.38077148 -.00000035  00000+0  00000+0 0  9995
2 45358  64.8230 345.5605 0011879 247.4026 112.5395  2.13102659 28442
COSMOS 2547 (705K)      
1 46805U 20075A   23314.63094368  .00000009  00000+0  00000+0 0  9996
2 46805  64.6089 224.2438 0006741 241.7486 118.2239  2.13102850 23679
COSMOS 2557 (706K)      
1 52984U 22075A   23316.20167834 -.00000036  00000+0  00000+0 0  9998
2 52984  64.7418 347.6840 0013773 277.1077  82.8047  2.13102193 10512
COSMOS 2559 (707K)      
1 54031U 22130A   23315.67462970 -.00000037  00000+0  00000+0 0  9995
2 54031  64.7132 347.8276 0007989 229.9754 130.0237  2.13101461  8470
COSMOS 2564 (761)       
1 54377U 22161A   23316.33665223  .00000030  00000+0  00000+0 0  9994
2 54377  64.7495 224.2519 0008549 218.6214 141.3675  2.13102210  7431
COSMOS 2569 (703K)      
1 57517U 23114A   23315.88644441  .00000057  00000+0  00000+0 0  9999
2 57517  64.8294 104.7206 0008785 293.4804  66.4215  2.13104131  2055
